RISAT-2BR2              
1 46905U 20081A   26068.52426450  .00004901  00000+0  37609-3 0  9996
2 46905  36.8980  95.9121 0010905  52.9142 307.2595 15.01602463292489
STARLINK-6125           
1 57114U 23090P   26068.55803195 -.00000204  00000+0 -54744-7 0  9998
2 57114  43.0010 275.3562 0001262 268.8087  91.2610 15.02531354150394
